CCSDS_OMM_VERS = 2.0
CREATION_DATE  = 
ORIGINATOR     = 

OBJECT_NAME    = STARLINK-35893
OBJECT_ID      = 2025-268J
CENTER_NAME    = EARTH
REF_FRAME      = TEME
TIME_SYSTEM    = UTC
MEAN_ELEMENT_THEORY = SGP/SGP4

EPOCH          = 2025-12-30T14:00:01.999872
MEAN_MOTION    = 15.27533415
ECCENTRICITY   = .00017997
INCLINATION    = 43.0006
RA_OF_ASC_NODE = 17.1340
ARG_OF_PERICENTER = 283.6053
MEAN_ANOMALY   = 61.0094

EPHEMERIS_TYPE = 0
CLASSIFICATION_TYPE = U
NORAD_CAT_ID   = 66565
ELEMENT_SET_NO = 999
REV_AT_EPOCH   = 602
BSTAR          = .25809645E-2
MEAN_MOTION_DOT = .71349E-3
MEAN_MOTION_DDOT = 0

CCSDS_OMM_VERS = 2.0
CREATION_DATE  = 
ORIGINATOR     = 

OBJECT_NAME    = STARLINK-35871
OBJECT_ID      = 2025-268K
CENTER_NAME    = EARTH
REF_FRAME      = TEME
TIME_SYSTEM    = UTC
MEAN_ELEMENT_THEORY = SGP/SGP4

EPOCH          = 2025-12-30T14:00:01.999872
MEAN_MOTION    = 15.27504437
ECCENTRICITY   = .00017112
INCLINATION    = 43.0004
RA_OF_ASC_NODE = 17.1000
ARG_OF_PERICENTER = 265.1843
MEAN_ANOMALY   = 93.5796

EPHEMERIS_TYPE = 0
CLASSIFICATION_TYPE = U
NORAD_CAT_ID   = 66566
ELEMENT_SET_NO = 999
REV_AT_EPOCH   = 597
BSTAR          = .26430826E-2
MEAN_MOTION_DOT = .73024E-3
MEAN_MOTION_DDOT = 0

CCSDS_OMM_VERS = 2.0
CREATION_DATE  = 
ORIGINATOR     = 

OBJECT_NAME    = STARLINK-35825
OBJECT_ID      = 2025-268L
CENTER_NAME    = EARTH
REF_FRAME      = TEME
TIME_SYSTEM    = UTC
MEAN_ELEMENT_THEORY = SGP/SGP4

EPOCH          = 2025-12-30T14:00:01.999872
MEAN_MOTION    = 15.28365342
ECCENTRICITY   = .0001389
INCLINATION    = 43.0007
RA_OF_ASC_NODE = 17.0606
ARG_OF_PERICENTER = 296.1972
MEAN_ANOMALY   = 78.6280

EPHEMERIS_TYPE = 0
CLASSIFICATION_TYPE = U
NORAD_CAT_ID   = 66567
ELEMENT_SET_NO = 999
REV_AT_EPOCH   = 597
BSTAR          = .24998718E-2
MEAN_MOTION_DOT = .70877E-3
MEAN_MOTION_DDOT = 0

CCSDS_OMM_VERS = 2.0
CREATION_DATE  = 
ORIGINATOR     = 

OBJECT_NAME    = STARLINK-35803
OBJECT_ID      = 2025-268M
CENTER_NAME    = EARTH
REF_FRAME      = TEME
TIME_SYSTEM    = UTC
MEAN_ELEMENT_THEORY = SGP/SGP4

EPOCH          = 2025-12-30T14:00:01.999872
MEAN_MOTION    = 15.31800747
ECCENTRICITY   = .00014477
INCLINATION    = 43.0008
RA_OF_ASC_NODE = 17.0023
ARG_OF_PERICENTER = 275.4717
MEAN_ANOMALY   = 124.3611

EPHEMERIS_TYPE = 0
CLASSIFICATION_TYPE = U
NORAD_CAT_ID   = 66568
ELEMENT_SET_NO = 999
REV_AT_EPOCH   = 602
BSTAR          = -.58012857E-1
MEAN_MOTION_DOT = -.1650625E-1
MEAN_MOTION_DDOT = 0

CCSDS_OMM_VERS = 2.0
CREATION_DATE  = 
ORIGINATOR     = 

OBJECT_NAME    = STARLINK-35835
OBJECT_ID      = 2025-268N
CENTER_NAME    = EARTH
REF_FRAME      = TEME
TIME_SYSTEM    = UTC
MEAN_ELEMENT_THEORY = SGP/SGP4

EPOCH          = 2025-12-30T14:00:01.999872
MEAN_MOTION    = 15.28741241
ECCENTRICITY   = .00019229
INCLINATION    = 43.0004
RA_OF_ASC_NODE = 16.9710
ARG_OF_PERICENTER = 276.8754
MEAN_ANOMALY   = 134.7443

EPHEMERIS_TYPE = 0
CLASSIFICATION_TYPE = U
NORAD_CAT_ID   = 66569
ELEMENT_SET_NO = 999
REV_AT_EPOCH   = 602
BSTAR          = -.22016501E-1
MEAN_MOTION_DOT = -.587622E-2
MEAN_MOTION_DDOT = 0

CCSDS_OMM_VERS = 2.0
CREATION_DATE  = 
ORIGINATOR     = 

OBJECT_NAME    = STARLINK-35834
OBJECT_ID      = 2025-268P
CENTER_NAME    = EARTH
REF_FRAME      = TEME
TIME_SYSTEM    = UTC
MEAN_ELEMENT_THEORY = SGP/SGP4

EPOCH          = 2025-12-30T14:00:01.999872
MEAN_MOTION    = 15.27534458
ECCENTRICITY   = .0001309
INCLINATION    = 43.0016
RA_OF_ASC_NODE = 17.7824
ARG_OF_PERICENTER = 242.2700
MEAN_ANOMALY   = 193.5290

EPHEMERIS_TYPE = 0
CLASSIFICATION_TYPE = U
NORAD_CAT_ID   = 66570
ELEMENT_SET_NO = 999
REV_AT_EPOCH   = 602
BSTAR          = .21568496E-2
MEAN_MOTION_DOT = .59487E-3
MEAN_MOTION_DDOT = 0

CCSDS_OMM_VERS = 2.0
CREATION_DATE  = 
ORIGINATOR     = 

OBJECT_NAME    = STARLINK-35836
OBJECT_ID      = 2025-268Q
CENTER_NAME    = EARTH
REF_FRAME      = TEME
TIME_SYSTEM    = UTC
MEAN_ELEMENT_THEORY = SGP/SGP4

EPOCH          = 2025-12-30T14:00:01.999872
MEAN_MOTION    = 15.27542191
ECCENTRICITY   = .00013392
INCLINATION    = 43.0013
RA_OF_ASC_NODE = 17.7307
ARG_OF_PERICENTER = 278.4898
MEAN_ANOMALY   = 178.5137

EPHEMERIS_TYPE = 0
CLASSIFICATION_TYPE = U
NORAD_CAT_ID   = 66571
ELEMENT_SET_NO = 999
REV_AT_EPOCH   = 591
BSTAR          = .2243499E-2
MEAN_MOTION_DOT = .61922E-3
MEAN_MOTION_DDOT = 0

CCSDS_OMM_VERS = 2.0
CREATION_DATE  = 
ORIGINATOR     = 

OBJECT_NAME    = STARLINK-35870
OBJECT_ID      = 2025-268R
CENTER_NAME    = EARTH
REF_FRAME      = TEME
TIME_SYSTEM    = UTC
MEAN_ELEMENT_THEORY = SGP/SGP4

EPOCH          = 2025-12-30T14:00:01.999872
MEAN_MOTION    = 15.27530200
ECCENTRICITY   = .00011523
INCLINATION    = 43.0009
RA_OF_ASC_NODE = 17.6461
ARG_OF_PERICENTER = 270.5968
MEAN_ANOMALY   = 221.7978

EPHEMERIS_TYPE = 0
CLASSIFICATION_TYPE = U
NORAD_CAT_ID   = 66572
ELEMENT_SET_NO = 999
REV_AT_EPOCH   = 586
BSTAR          = .23709688E-2
MEAN_MOTION_DOT = .65463E-3
MEAN_MOTION_DDOT = 0

CCSDS_OMM_VERS = 2.0
CREATION_DATE  = 
ORIGINATOR     = 

OBJECT_NAME    = STARLINK-35650
OBJECT_ID      = 2025-268S
CENTER_NAME    = EARTH
REF_FRAME      = TEME
TIME_SYSTEM    = UTC
MEAN_ELEMENT_THEORY = SGP/SGP4

EPOCH          = 2025-12-30T14:00:01.999872
MEAN_MOTION    = 15.27544804
ECCENTRICITY   = .000127
INCLINATION    = 43.0006
RA_OF_ASC_NODE = 17.5938
ARG_OF_PERICENTER = 271.1458
MEAN_ANOMALY   = 242.4686

EPHEMERIS_TYPE = 0
CLASSIFICATION_TYPE = U
NORAD_CAT_ID   = 66573
ELEMENT_SET_NO = 999
REV_AT_EPOCH   = 602
BSTAR          = .19880756E-2
MEAN_MOTION_DOT = .54794E-3
MEAN_MOTION_DDOT = 0

CCSDS_OMM_VERS = 2.0
CREATION_DATE  = 
ORIGINATOR     = 

OBJECT_NAME    = STARLINK-35812
OBJECT_ID      = 2025-268T
CENTER_NAME    = EARTH
REF_FRAME      = TEME
TIME_SYSTEM    = UTC
MEAN_ELEMENT_THEORY = SGP/SGP4

EPOCH          = 2025-12-30T14:00:01.999872
MEAN_MOTION    = 15.27525375
ECCENTRICITY   = .00009381
INCLINATION    = 43.0004
RA_OF_ASC_NODE = 17.5416
ARG_OF_PERICENTER = 256.0043
MEAN_ANOMALY   = 278.8560

EPHEMERIS_TYPE = 0
CLASSIFICATION_TYPE = U
NORAD_CAT_ID   = 66574
ELEMENT_SET_NO = 999
REV_AT_EPOCH   = 602
BSTAR          = .22732489E-2
MEAN_MOTION_DOT = .62721E-3
MEAN_MOTION_DDOT = 0

CCSDS_OMM_VERS = 2.0
CREATION_DATE  = 
ORIGINATOR     = 

OBJECT_NAME    = STARLINK-35810
OBJECT_ID      = 2025-268U
CENTER_NAME    = EARTH
REF_FRAME      = TEME
TIME_SYSTEM    = UTC
MEAN_ELEMENT_THEORY = SGP/SGP4

EPOCH          = 2025-12-30T14:00:01.999872
MEAN_MOTION    = 15.27539974
ECCENTRICITY   = .00019466
INCLINATION    = 43.0004
RA_OF_ASC_NODE = 17.4904
ARG_OF_PERICENTER = 266.5587
MEAN_ANOMALY   = 289.5015

EPHEMERIS_TYPE = 0
CLASSIFICATION_TYPE = U
NORAD_CAT_ID   = 66575
ELEMENT_SET_NO = 999
REV_AT_EPOCH   = 602
BSTAR          = .21810365E-2
MEAN_MOTION_DOT = .60174E-3
MEAN_MOTION_DDOT = 0

CCSDS_OMM_VERS = 2.0
CREATION_DATE  = 
ORIGINATOR     = 

OBJECT_NAME    = STARLINK-35814
OBJECT_ID      = 2025-268V
CENTER_NAME    = EARTH
REF_FRAME      = TEME
TIME_SYSTEM    = UTC
MEAN_ELEMENT_THEORY = SGP/SGP4

EPOCH          = 2025-12-30T14:00:01.999872
MEAN_MOTION    = 15.27549694
ECCENTRICITY   = .00010641
INCLINATION    = 43.0004
RA_OF_ASC_NODE = 17.4390
ARG_OF_PERICENTER = 274.7151
MEAN_ANOMALY   = 302.5764

EPHEMERIS_TYPE = 0
CLASSIFICATION_TYPE = U
NORAD_CAT_ID   = 66576
ELEMENT_SET_NO = 999
REV_AT_EPOCH   = 597
BSTAR          = .18763494E-2
MEAN_MOTION_DOT = .51685E-3
MEAN_MOTION_DDOT = 0

