STARLINK-35893          
1 66565U 25268J   25364.58335648  .00071349  00000+0  25810-2 0  9994
2 66565  43.0006  17.1340 0001799 283.6053  61.0094 15.27533415  6026
STARLINK-35871          
1 66566U 25268K   25364.58335648  .00073024  00000+0  26431-2 0  9997
2 66566  43.0004  17.1000 0001711 265.1843  93.5796 15.27504437  5978
STARLINK-35825          
1 66567U 25268L   25364.58335648  .00070877  00000+0  24999-2 0  9998
2 66567  43.0007  17.0606 0001389 296.1972  78.6280 15.28365342  5974
STARLINK-35803          
1 66568U 25268M   25364.58335648 -.01650625  00000+0 -58013-1 0  9990
2 66568  43.0008  17.0023 0001447 275.4717 124.3611 15.31800747  6022
STARLINK-35835          
1 66569U 25268N   25364.58335648 -.00587622  00000+0 -22017-1 0  9991
2 66569  43.0004  16.9710 0001922 276.8754 134.7443 15.28741241  6021
STARLINK-35834          
1 66570U 25268P   25364.58335648  .00059487  00000+0  21568-2 0  9995
2 66570  43.0016  17.7824 0001309 242.2700 193.5290 15.27534458  6020
STARLINK-35836          
1 66571U 25268Q   25364.58335648  .00061922  00000+0  22435-2 0  9997
2 66571  43.0013  17.7307 0001339 278.4898 178.5137 15.27542191  5919
STARLINK-35870          
1 66572U 25268R   25364.58335648  .00065463  00000+0  23710-2 0  9999
2 66572  43.0009  17.6461 0001152 270.5968 221.7978 15.27530200  5865
STARLINK-35650          
1 66573U 25268S   25364.58335648  .00054794  00000+0  19881-2 0  9999
2 66573  43.0006  17.5938 0001270 271.1458 242.4686 15.27544804  6023
STARLINK-35812          
1 66574U 25268T   25364.58335648  .00062721  00000+0  22732-2 0  9998
2 66574  43.0004  17.5416 0000938 256.0043 278.8560 15.27525375  6021
STARLINK-35810          
1 66575U 25268U   25364.58335648  .00060174  00000+0  21810-2 0  9995
2 66575  43.0004  17.4904 0001946 266.5587 289.5015 15.27539974  6026
STARLINK-35814          
1 66576U 25268V   25364.58335648  .00051685  00000+0  18763-2 0  9996
2 66576  43.0004  17.4390 0001064 274.7151 302.5764 15.27549694  5975
